IRIDIUM 171             
1 43929U 19002H   24045.54350464  .00000222  00000+0  72309-4 0  9995
2 43929  86.4023 350.5422 0002167  87.2813 272.8630 14.34218955266608
IRIDIUM 170             
1 43930U 19002J   24045.55871240  .00002732  00000+0  42909-3 0  9998
2 43930  86.6146 350.3756 0002354  89.2608 270.8879 14.72267959273665
IRIDIUM 167             
1 43931U 19002K   24045.60692801  .00000733  00000+0  25456-3 0  9996
2 43931  86.4014 350.3192 0002246  87.5687 272.5766 14.34219310266617
IRIDIUM 181             
1 56726U 23068S   24045.51575981  .00000437  00000+0  12339-3 0  9995
2 56726  86.8615  38.0583 0002446 103.6508 256.4966 14.43580239 39298
IRIDIUM 177             
1 56727U 23068T   24045.37902037  .00003608  00000+0  47158-3 0  9996
2 56727  86.2028  14.1192 0002964 100.2207 259.9349 14.80207105 40065
IRIDIUM 174             
1 56728U 23068U   24045.44117692  .00003939  00000+0  51505-3 0  9998
2 56728  86.1986  14.1898 0002530  90.4087 269.7424 14.80209628 40072
IRIDIUM 178             
1 56729U 23068V   24045.43599483  .00003713  00000+0  48476-3 0  9993
2 56729  86.5793  25.7803 0002698  90.6825 269.4706 14.80262898 40072
IRIDIUM 179             
1 56730U 23068W   24045.49825922  .00003711  00000+0  48448-3 0  9998
2 56730  86.6798  28.3285 0002595  95.4450 264.7067 14.80261701 40087
